PROMETHEUS 2-1          
1 41854U 16067G   22147.89906022  .00005228  00000+0  43235-3 0  9990
2 41854  97.9900 279.3367 0009700  58.7697 301.4474 14.99336337302661
PROMETHEUS 2-3          
1 41855U 16067H   22148.15886861  .00004834  00000+0  40003-3 0  9991
2 41855  97.9906 279.6822 0008976  52.9812 307.2230 14.99361046302700
INS-1B                  
1 41954U 17008G   22147.72470319  .00013627  00000+0  45630-3 0  9997
2 41954  97.2593 208.0438 0006194 314.6881  45.3856 15.31044798293575
BGUSAT                  
1 41999U 17008BD  22147.74675195  .00030726  00000+0  77564-3 0  9997
2 41999  97.2823 218.2382 0003766 295.8362  64.2496 15.39774453293450
DIDO-2                  
1 42000U 17008BE  22148.12837939  .00008381  00000+0  30613-3 0  9996
2 42000  97.2580 207.9362 0006579 342.6582  17.4432 15.28332427292961
PEASSS                  
1 42015U 17008BV  22147.75045819  .00013994  00000+0  46591-3 0  9996
2 42015  97.2648 211.2634 0004304 341.8257  18.2830 15.31232401293604
AL-FARABI 1             
1 42016U 17008BW  22147.74352042  .00016197  00000+0  49512-3 0  9999
2 42016  97.2712 214.1553 0003606 334.4290  25.6775 15.33939584293875
NAYIF-1 (EO-88)         
1 42017U 17008BX  22147.69506009  .00016499  00000+0  50230-3 0  9992
2 42017  97.2702 214.1178 0003710 330.7869  29.3166 15.34063748293893
UCLSAT                  
1 42765U 17036A   22147.84717645  .00015501  00000+0  54556-3 0  9998
2 42765  97.1992 191.1608 0010362  47.9680 312.2441 15.29359282274708
LITUANICASAT-2          
1 42768U 17036D   22147.86910936  .00034663  00000+0  10278-2 0  9993
2 42768  97.2076 193.6804 0010529  31.3914 328.7956 15.34700318274093
AALTO-1                 
1 42775U 17036L   22147.90230687  .00008959  00000+0  35658-3 0  9993
2 42775  97.1990 186.4174 0013624  46.5334 313.7035 15.25391272273645
URSA MAIOR              
1 42776U 17036M   22147.69377802  .00008334  00000+0  32684-3 0  9994
2 42776  97.2006 186.9244 0013284  46.2011 314.0325 15.25911634273645
COMPASS 2               
1 42777U 17036N   22147.85612788  .00023502  00000+0  76209-3 0  9993
2 42777  97.2062 193.1334 0009921  36.5691 323.6227 15.31934657273999
DIAMOND RED             
1 42783U 17036U   22148.07589760  .00011256  00000+0  42409-3 0  9996
2 42783  97.2008 189.5765 0011701  50.9844 309.2435 15.27177315273831
PEGASUS                 
1 42784U 17036V   22148.08468276  .00013561  00000+0  49015-3 0  9997
2 42784  97.2006 190.6800 0011155  48.8854 311.3348 15.28508570273900
DIAMOND GREEN           
1 42785U 17036W   22147.87789652  .00012135  00000+0  45667-3 0  9993
2 42785  97.2013 189.4494 0011632  52.5886 307.6411 15.27200536273876
DIAMOND BLUE            
1 42786U 17036X   22147.61449111  .00009683  00000+0  36528-3 0  9999
2 42786  97.2014 189.1880 0011628  53.7584 306.4728 15.27176601273836
NUDTSAT                 
1 42787U 17036Y   22147.28483859  .00027708  00000+0  86852-3 0  9993
2 42787  97.2043 193.8468 0009291  41.7557 318.4252 15.32993681273851
SUCHAI                  
1 42788U 17036Z   22148.10363866  .00016839  00000+0  57742-3 0  9990
2 42788  97.2016 192.2745 0010214  45.3060 314.9011 15.30192575274079
SKCUBE                  
1 42789U 17036AA  22147.69813680  .00012677  00000+0  44515-3 0  9998
2 42789  97.2011 191.3723 0010420  47.3996 312.8122 15.29479169273906
VZLUSAT-1               
1 42790U 17036AB  22147.87810524  .00024754  00000+0  77939-3 0  9999
2 42790  97.2036 194.3955 0008768  41.3324 318.8580 15.32878701274090
ROBUSTA-1B              
1 42792U 17036AD  22147.85668559  .00016285  00000+0  56245-3 0  9995
2 42792  97.2011 192.0726 0009965  47.4412 312.7668 15.29967220273978
CICERO 6                
1 42793U 17036AE  22147.63628269  .00008224  00000+0  31150-3 0  9998
2 42793  97.1992 189.7116 0010221  53.2877 306.9299 15.27104810273891
CORVUS BC2              
1 42846U 17042X   22147.83864543  .00001700  00000+0  16911-3 0  9993
2 42846  97.4259   6.3135 0011067  69.6404 290.6004 14.92851895265202
CORVUS BC1              
1 42847U 17042Y   22147.85366163  .00001460  00000+0  14552-3 0  9993
2 42847  97.4257   6.6293 0010648  68.5983 291.6372 14.92955915265211
MIRATA                  
1 43015U 17073C   22148.19175322  .00006350  00000+0  46721-3 0  9994
2 43015  97.6770  44.2533 0237929 247.6116 109.9735 14.83791941244260
MAKERSAT 0              
1 43016U 17073D   22147.66029685  .00003798  00000+0  28717-3 0  9994
2 43016  97.6790  43.3681 0244544 253.5073 103.9146 14.82179094244118
AEROCUBE 7B (OCSD B)    
1 43042U 17071F   22148.19624991  .00161385  00000+0  10199-2 0  9992
2 43042  51.6303 147.4707 0006797  52.4725 307.6892 15.75555874252496
AEROCUBE 7C (OCSD C)    
1 43043U 17071G   22148.20616055  .00149447  00000+0  10245-2 0  9994
2 43043  51.6295 149.0057 0006350  51.9677 308.1894 15.73721684252443
ASGARDIA 1              
1 43049U 17071N   22148.14650035  .00112652  00000+0  91498-3 0  9997
2 43049  51.6300 151.0571 0005447  40.2683 319.8717 15.69844511252403
PROPCUBE 2 (FAUNA)      
1 43052U 17071R   22147.28381314  .00132903  00000+0  81160-3 0  9992
2 43052  51.6255 146.7113 0006460  43.9334 316.2178 15.76435501252380
CORVUS BC3              
1 43118U 18004H   22147.73006290  .00008048  00000+0  30504-3 0  9997
2 43118  97.3636 220.7067 0010704  79.7693 280.4752 15.27096213243058
MICROMAS-2A             
1 43131U 18004W   22147.69938781  .00024965  00000+0  72504-3 0  9998
2 43131  97.3764 226.9405 0006969  73.1153 287.0854 15.35454327243392
SPACEBEE-4              
1 43139U 18004AE  22148.20546367  .00057985  00000+0  13151-2 0  9999
2 43139  97.3858 232.0821 0004430  70.5007 289.6719 15.42866706243714
SPACEBEE-3              
1 43140U 18004AF  22147.82176366  .00105263  00000+0  17675-2 0  9994
2 43140  97.3895 235.1218 0001425  80.1129 280.0284 15.51411178243861
SPACEBEE-2              
1 43141U 18004AG  22148.18810507  .00138199  00000+0  19942-2 0  9990
2 43141  97.3915 236.8564 0000041 174.6683 185.4572 15.55495447243991
SPACEBEE-1              
1 43142U 18004AH  22148.18333210  .00201333  00000+0  23057-2 0  9995
2 43142  97.3916 238.3646 0002780 259.2318 100.8627 15.61450698244076
CICERO 7                
1 43143U 18004AJ  22147.71029032  .00015619  00000+0  49064-3 0  9995
2 43143  97.3741 226.5748 0006754  81.4091 278.7916 15.33065439243397
GOMX-4B                 
1 43196U 18015E   22147.64255593  .00006857  00000+0  26162-3 0  9998
2 43196  97.5308 286.8383 0018420 128.3810 231.9086 15.26842970239987
GOMX-4A                 
1 43197U 18015F   22148.10371013  .00010452  00000+0  37711-3 0  9995
2 43197  97.5295 288.0474 0018257 127.1410 319.6764 15.28546789240114
AEROCUBE 12A            
1 43556U 18046C   22147.91724842  .00025000  00000+0  65295-3 0  9991
2 43556  51.6368 283.9236 0007441 319.0562  40.9863 15.38608369216153
AEROCUBE 12B            
1 43557U 18046D   22148.08978039  .00017167  00000+0  47830-3 0  9990
2 43557  51.6385 287.2600 0007343 318.3384  41.7040 15.36859000216075
SURFSAT                 
1 43614U 18070B   22147.91515358  .00047795  00000+0  73797-3 0  9994
2 43614  93.0309  90.0340 0015220  98.7027 261.5960 15.53831527207876
CP7 (DAVE)              
1 43615U 18070C   22147.84441378  .00042670  00000+0  68533-3 0  9996
2 43615  93.0299  89.8747 0015270  99.8211 260.4775 15.52756334207833
ELFIN-B                 
1 43616U 18070D   22147.80380649  .00078065  00000+0  80970-3 0  9992
2 43616  93.0207  90.9042 0014326  96.6380 263.6519 15.64288562208127
ELFIN-A                 
1 43617U 18070E   22147.83483651  .00110645  00000+0  10602-2 0  9998
2 43617  93.0281  92.2189 0013418  94.5402 265.7400 15.66204964208173
CUBEBEL-1 (BSUSAT-1)    
1 43666U 18083E   22148.15009453  .00013112  00000+0  55964-3 0  9998
2 43666  97.4214 177.0691 0014277  50.6634 350.8529 15.22935142198396
CICERO 10               
1 43690U 18088A   22148.02193483  .00009631  00000+0  38849-3 0  9997
2 43690  85.0348 329.9022 0012238 215.9426 144.0996 15.24592488196629
IRVINE01                
1 43693U 18088D   22147.95903067  .00043816  00000+0  12209-2 0  9992
2 43693  85.0275 324.7315 0012955 181.2024 178.9197 15.36517431197071
PROXIMA I               
1 43694U 18088E   22147.80634036  .00010221  00000+0  39265-3 0  9990
2 43694  85.0279 326.7876 0017042 183.7021 176.4100 15.26155234196823
PROXIMA II              
1 43696U 18088G   22147.80622865  .00010223  00000+0  39296-3 0  9995
2 43696  85.0278 326.8049 0017079 183.6816 176.4306 15.26135706196817
FACSAT-1                
1 43721U 18096C   22148.10748979  .00026191  00000+0  75445-3 0  9999
2 43721  97.3499 227.9551 0015234 125.9631 278.2822 15.35607503194856
CENTAURI-2              
1 43722U 18096D   22147.74920614  .00032512  00000+0  84912-3 0  9990
2 43722  97.3562 229.4580 0014030 125.1251 235.1312 15.38625958194897
INNOSAT-2               
1 43738U 18096V   22148.12658236  .00061473  00000+0  11827-2 0  9990
2 43738  97.3655 236.5645 0015209 120.2003 324.0745 15.47577743195367
SIRION PATHFINDER-2     
1 43759U 18099B   22147.91023939  .00002089  00000+0  18963-3 0  9995
2 43759  97.6208 215.2156 0013253 334.7785  25.2788 14.96297731189970
CORVUS BC4              
1 43767U 18099K   22147.85622841  .00002628  00000+0  24097-3 0  9998
2 43767  97.6169 213.7004 0010733 343.8713  16.2165 14.95694144189890
MOVE-II                 
1 43780U 18099Y   22148.17183473  .00004691  00000+0  40592-3 0  9992
2 43780  97.6250 216.1216 0012353 343.4036  16.6780 14.97576466190024
SPACEBEE-7              
1 43816U 18099BL  22147.68984181  .00003317  00000+0  28904-3 0  9999
2 43816  97.6280 216.3763 0011830 331.0599  28.9966 14.97517753189543
SPACEBEE-5              
1 43817U 18099BM  22148.13340487  .00012057  00000+0  95123-3 0  9994
2 43817  97.6379 219.5292 0009313 344.7081  15.3860 15.00842252189728
